OBJECT_NAME,OBJECT_ID,EPOCH,MEAN_MOTION,ECCENTRICITY,INCLINATION,RA_OF_ASC_NODE,ARG_OF_PERICENTER,MEAN_ANOMALY,EPHEMERIS_TYPE,CLASSIFICATION_TYPE,NORAD_CAT_ID,ELEMENT_SET_NO,REV_AT_EPOCH,BSTAR,MEAN_MOTION_DOT,MEAN_MOTION_DDOT
KUIPER-00606,2026-118Y,2026-06-10T11:55:46.093728,15.37643821,.0004776,51.8694,85.5949,129.1033,231.0379,0,U,69289,999,295,.53617E-3,.1979E-3,0
KUIPER-00607,2026-118Z,2026-06-10T11:59:12.980256,15.37332169,.0006406,51.8681,85.6110,133.9964,226.1551,0,U,69290,999,295,.49762E-3,.18152E-3,0
KUIPER-00608,2026-118AA,2026-06-10T10:37:05.282400,15.35685897,.0009338,51.8603,85.9767,150.8746,209.2763,0,U,69291,999,294,.27916E-3,.9474E-4,0
KUIPER-00610,2026-118AB,2026-06-10T11:50:01.001760,15.38198989,.0003016,51.8716,85.5642,113.3460,246.7844,0,U,69292,999,295,.62798E-3,.23682E-3,0
KUIPER-00613,2026-118AC,2026-06-10T12:15:19.080000,15.35274911,.0010127,51.8630,85.6824,159.9170,200.2216,0,U,69293,999,295,.23583E-3,.7835E-4,0
KUIPER-00618,2026-118AD,2026-06-10T11:46:00.170400,15.38450788,.0001988,51.8716,85.5447,73.4755,286.6451,0,U,69294,999,295,.50218E-3,.19004E-3,0
KUIPER-00620,2026-118AE,2026-06-10T11:49:06.568032,15.38270374,.0003112,51.8713,85.5613,99.4800,260.6539,0,U,69295,999,295,.51857E-3,.19523E-3,0
STARLINK-37501,2026-119A,2026-06-10T12:00:02.000160,15.80031607,.0000982,97.2845,186.9534,90.9905,273.0322,0,U,69296,999,281,-.10818E-2,-.195659E-2,0
STARLINK-37496,2026-119B,2026-06-10T12:00:02.000160,15.79917417,.0000891,97.2845,186.9515,103.9815,257.3432,0,U,69297,999,281,-.3025E-4,-.5698E-4,0
STARLINK-37519,2026-119C,2026-06-10T12:00:02.000160,15.80811699,.0001364,97.2844,186.9612,102.6276,281.1862,0,U,69298,999,281,-.15256E-3,-.29261E-3,0
STARLINK-37455,2026-119D,2026-06-10T12:00:02.000160,15.79908601,.0001396,97.2848,186.9566,91.9554,278.9882,0,U,69299,999,281,.19354E-3,.3558E-3,0
STARLINK-37456,2026-119E,2026-06-10T12:00:02.000160,15.80789023,.0000981,97.2843,186.9633,112.7713,275.5369,0,U,69300,999,281,.13167E-3,.2512E-3,0
STARLINK-37630,2026-119F,2026-06-10T12:00:02.000160,15.77005165,.0001697,97.2845,186.9625,97.9266,289.1481,0,U,69301,999,297,-.58793E-2,-.859805E-2,0
STARLINK-37804,2026-119G,2026-06-10T12:00:02.000160,15.77452976,.0001456,97.2844,186.9630,118.5337,270.9912,0,U,69302,999,297,-.11748E-1,-.1712345E-1,0
STARLINK-37730,2026-119H,2026-06-10T12:00:02.000160,15.80800530,.0000924,97.2843,186.9692,106.6242,294.4120,0,U,69303,999,297,.13807E-3,.26366E-3,0
STARLINK-37731,2026-119J,2026-06-10T12:00:02.000160,15.78369664,.0001125,97.2842,186.9683,82.1625,317.7751,0,U,69304,999,297,-.15766E-1,-.2342697E-1,0
STARLINK-37734,2026-119K,2026-06-10T12:00:02.000160,15.80813053,.0000976,97.2839,186.9705,106.5635,300.4396,0,U,69305,999,297,-.16408E-3,-.31452E-3,0
STARLINK-37701,2026-119L,2026-06-10T12:00:02.000160,15.80760981,.0000956,97.2845,186.9710,102.4112,306.1356,0,U,69306,999,297,.49859E-3,.96177E-3,0
STARLINK-37732,2026-119M,2026-06-10T12:00:02.000160,15.80762966,.0001413,97.2845,186.9728,93.2873,317.6373,0,U,69307,999,297,.41363E-3,.79621E-3,0
STARLINK-37689,2026-119N,2026-06-10T12:00:02.000160,15.79232828,.0001606,97.2841,186.9743,85.2139,331.6020,0,U,69308,999,297,-.15745E-1,-.242074E-1,0
STARLINK-37619,2026-119P,2026-06-10T12:00:02.000160,15.80795860,.0001738,97.2837,186.9774,98.6210,322.0184,0,U,69309,999,297,.15224E-3,.29091E-3,0
STARLINK-37794,2026-119Q,2026-06-10T12:00:02.000160,15.80798242,.0001051,97.2837,186.9831,102.2668,331.0578,0,U,69310,999,297,.16527E-3,.31603E-3,0
STARLINK-37795,2026-119R,2026-06-10T12:00:02.000160,15.78870330,.0001399,97.2841,186.9822,94.8681,339.5953,0,U,69311,999,297,-.12392E-1,-.189802E-1,0
STARLINK-37790,2026-119S,2026-06-10T12:00:02.000160,15.80791485,.0001506,97.2836,186.9861,94.0424,346.7097,0,U,69312,999,297,.2399E-3,.46002E-3,0
STARLINK-37676,2026-119T,2026-06-10T12:00:02.000160,15.80738771,.0001021,97.2837,186.9916,105.7743,346.5062,0,U,69313,999,297,.80631E-3,.156552E-2,0
STARLINK-37617,2026-119U,2026-06-10T12:00:02.000160,15.80735364,.0001628,97.2836,186.9927,99.2947,357.9417,0,U,69314,999,297,.73949E-3,.143329E-2,0
STARLINK-37627,2026-119V,2026-06-10T12:00:02.000160,15.80731036,.000131,97.2837,186.9936,94.8483,4.2159,0,U,69315,999,297,.52816E-3,.101817E-2,0
STARLINK-37738,2026-119W,2026-06-10T12:00:02.000160,15.80794037,.0001213,97.2833,186.9873,99.4061,346.8541,0,U,69316,999,297,.26314E-6,-.91E-6,0
STARLINK-37799,2026-119X,2026-06-10T12:00:02.000160,15.80796400,.0001634,97.2833,186.9921,104.3368,350.6434,0,U,69317,999,292,.18265E-3,.34953E-3,0
STARLINK-37802,2026-119Y,2026-06-10T12:00:02.000160,15.80676773,.000123,97.2835,186.9975,104.1785,2.3731,0,U,69318,999,297,.12194E-2,.238419E-2,0
