KUIPER-00606            
1 69289U 26118Y   26161.49706127  .00019790  00000+0  53617-3 0  9994
2 69289  51.8694  85.5949 0004776 129.1033 231.0379 15.37643821  2953
KUIPER-00607            
1 69290U 26118Z   26161.49945579  .00018152  00000+0  49762-3 0  9999
2 69290  51.8681  85.6110 0006406 133.9964 226.1551 15.37332169  2957
KUIPER-00608            
1 69291U 26118AA  26161.44242225  .00009474  00000+0  27916-3 0  9997
2 69291  51.8603  85.9767 0009338 150.8746 209.2763 15.35685897  2949
KUIPER-00610            
1 69292U 26118AB  26161.49306715  .00023682  00000+0  62798-3 0  9992
2 69292  51.8716  85.5642 0003016 113.3460 246.7844 15.38198989  2958
KUIPER-00613            
1 69293U 26118AC  26161.51063750  .00007835  00000+0  23583-3 0  9996
2 69293  51.8630  85.6824 0010127 159.9170 200.2216 15.35274911  2957
KUIPER-00618            
1 69294U 26118AD  26161.49027975  .00019004  00000+0  50218-3 0  9999
2 69294  51.8716  85.5447 0001988  73.4755 286.6451 15.38450788  2957
KUIPER-00620            
1 69295U 26118AE  26161.49243713  .00019523  00000+0  51857-3 0  9996
2 69295  51.8713  85.5613 0003112  99.4800 260.6539 15.38270374  2950
STARLINK-37501          
1 69296U 26119A   26161.50002315 -.00195659  00000+0 -10818-2 0  9999
2 69296  97.2845 186.9534 0000982  90.9905 273.0322 15.80031607  2817
STARLINK-37496          
1 69297U 26119B   26161.50002315 -.00005698  00000+0 -30250-4 0  9997
2 69297  97.2845 186.9515 0000891 103.9815 257.3432 15.79917417  2818
STARLINK-37519          
1 69298U 26119C   26161.50002315 -.00029261  00000+0 -15256-3 0  9998
2 69298  97.2844 186.9612 0001364 102.6276 281.1862 15.80811699  2818
STARLINK-37455          
1 69299U 26119D   26161.50002315  .00035580  00000+0  19354-3 0  9991
2 69299  97.2848 186.9566 0001396  91.9554 278.9882 15.79908601  2819
STARLINK-37456          
1 69300U 26119E   26161.50002315  .00025120  00000+0  13167-3 0  9999
2 69300  97.2843 186.9633 0000981 112.7713 275.5369 15.80789023  2810
STARLINK-37630          
1 69301U 26119F   26161.50002315 -.00859805  00000+0 -58793-2 0  9990
2 69301  97.2845 186.9625 0001697  97.9266 289.1481 15.77005165  2973
STARLINK-37804          
1 69302U 26119G   26161.50002315 -.01712345  00000+0 -11748-1 0  9997
2 69302  97.2844 186.9630 0001456 118.5337 270.9912 15.77452976  2974
STARLINK-37730          
1 69303U 26119H   26161.50002315  .00026366  00000+0  13807-3 0  9996
2 69303  97.2843 186.9692 0000924 106.6242 294.4120 15.80800530  2973
STARLINK-37731          
1 69304U 26119J   26161.50002315 -.02342697  00000+0 -15766-1 0  9993
2 69304  97.2842 186.9683 0001125  82.1625 317.7751 15.78369664  2974
STARLINK-37734          
1 69305U 26119K   26161.50002315 -.00031452  00000+0 -16408-3 0  9992
2 69305  97.2839 186.9705 0000976 106.5635 300.4396 15.80813053  2974
STARLINK-37701          
1 69306U 26119L   26161.50002315  .00096177  00000+0  49859-3 0  9992
2 69306  97.2845 186.9710 0000956 102.4112 306.1356 15.80760981  2971
STARLINK-37732          
1 69307U 26119M   26161.50002315  .00079621  00000+0  41363-3 0  9990
2 69307  97.2845 186.9728 0001413  93.2873 317.6373 15.80762966  2972
STARLINK-37689          
1 69308U 26119N   26161.50002315 -.02420740  00000+0 -15745-1 0  9990
2 69308  97.2841 186.9743 0001606  85.2139 331.6020 15.79232828  2978
STARLINK-37619          
1 69309U 26119P   26161.50002315  .00029091  00000+0  15224-3 0  9995
2 69309  97.2837 186.9774 0001738  98.6210 322.0184 15.80795860  2979
STARLINK-37794          
1 69310U 26119Q   26161.50002315  .00031603  00000+0  16527-3 0  9996
2 69310  97.2837 186.9831 0001051 102.2668 331.0578 15.80798242  2976
STARLINK-37795          
1 69311U 26119R   26161.50002315 -.01898020  00000+0 -12392-1 0  9998
2 69311  97.2841 186.9822 0001399  94.8681 339.5953 15.78870330  2974
STARLINK-37790          
1 69312U 26119S   26161.50002315  .00046002  00000+0  23990-3 0  9999
2 69312  97.2836 186.9861 0001506  94.0424 346.7097 15.80791485  2974
STARLINK-37676          
1 69313U 26119T   26161.50002315  .00156552  00000+0  80631-3 0  9997
2 69313  97.2837 186.9916 0001021 105.7743 346.5062 15.80738771  2972
STARLINK-37617          
1 69314U 26119U   26161.50002315  .00143329  00000+0  73949-3 0  9990
2 69314  97.2836 186.9927 0001628  99.2947 357.9417 15.80735364  2975
STARLINK-37627          
1 69315U 26119V   26161.50002315  .00101817  00000+0  52816-3 0  9997
2 69315  97.2837 186.9936 0001310  94.8483   4.2159 15.80731036  2978
STARLINK-37738          
1 69316U 26119W   26161.50002315 -.00000091  00000+0  26314-6 0  9998
2 69316  97.2833 186.9873 0001213  99.4061 346.8541 15.80794037  2970
STARLINK-37799          
1 69317U 26119X   26161.50002315  .00034953  00000+0  18265-3 0  9995
2 69317  97.2833 186.9921 0001634 104.3368 350.6434 15.80796400  2923
STARLINK-37802          
1 69318U 26119Y   26161.50002315  .00238419  00000+0  12194-2 0  9993
2 69318  97.2835 186.9975 0001230 104.1785   2.3731 15.80676773  2974
